IRIDIUM 921             
1 24873U 97034E   24197.25428804  .00037570  00000+0  89813-3 0  9996
2 24873  86.3795 274.1976 0006018 134.0557 226.1194 15.41312754479503
IRIDIUM 26              
1 24903U 97043A   24197.61148586  .00000636  00000+0  21037-3 0  9993
2 24903  86.3940 251.8273 0002439  96.6905 263.4569 14.36435628408415
IRIDIUM 22              
1 24907U 97043E   24197.54972288  .00000620  00000+0  20955-3 0  9994
2 24907  86.3944 255.1134 0002234  93.2768 266.8684 14.35323004408473
DUMMY MASS 1            
1 24925U 97048A   24197.53788637  .00000811  00000+0  89036-4 0  9999
2 24925  86.3349 290.8893 0004495 254.1314 105.9415 14.86284979455117
DUMMY MASS 2            
1 24926U 97048B   24197.51178971  .00000795  00000+0  87710-4 0  9990
2 24926  86.3349 292.4497 0005238 271.2883  88.7741 14.86042560454895
IRIDIUM 29              
1 24944U 97051A   24197.61342643  .00000772  00000+0  26039-3 0  9995
2 24944  86.3953 284.9866 0001962  93.8387 266.3034 14.35774735404961
IRIDIUM 33              
1 24946U 97051C   24197.59720732  .00000554  00000+0  19000-3 0  9991
2 24946  86.3867 284.2428 0010108  96.4194 263.8154 14.34417786404482
IRIDIUM 28              
1 24948U 97051E   24197.59846901  .00000748  00000+0  24725-3 0  9995
2 24948  86.3957 282.6992 0002632  96.9699 263.1797 14.36729144405506
